EZIE-A                  
1 63247U 25052AP  26068.97824436  .00008013  00000+0  71343-3 0  9993
2 63247  97.7004 322.7329 0003742 145.0909 215.0559 14.96303626 53828
STARLINK-36221          
1 67215U 25304Z   26068.70439357 -.00005012  00000+0 -41268-3 0  9998
2 67215  70.0026 174.5449 0004157 274.6212  85.4472 14.98316025 13882
